# From MPC106342
C/1995 O1 (Hale-Bopp),e,89.1325,283.0589,130.4525,177.7569,0.0004159,0.99496356,0.0000,03/29.7372/1997,2000,g -2.0,4.0
# From MPC 27287
C/1996 B2 (Hyakutake),e,125.6227,186.8017,129.3931,1520,0.0000166,0.99985063,0.0000,04/20.1847/1996,2000,g 10.0,4.0
# From NK 1615
P/1996 R2 (Lagerkvist),e,2.6007,40.0143,333.3438,3.774887,0.1343842,0.31436830,136.7850,11/26.0/2021,2000,g 11.5,4.0
# From MPC 30063
P/1997 B1 (Kobayashi),e,12.3394,328.8817,183.3223,8.580780,0.0392115,0.76037525,355.1879,11/26.0/2021,2000,g 15.0,2.0
# From MPC 75703
P/1998 VS24 (LINEAR),e,5.0264,159.0384,244.6046,4.527252,0.1023180,0.24259007,144.0023,11/26.0/2021,2000,g 13.0,2.0
# From NK 731
P/1999 RO28 (LONEOS),e,7.5672,137.8849,231.2679,3.426657,0.1553811,0.67236779,137.2873,11/26.0/2021,2000,g 20.0,2.0
# From MPC 75704
P/1999 XN120 (Catalina),e,5.0297,285.2962,161.7762,4.178950,0.1153728,0.21024826,188.1661,11/26.0/2021,2000,g 13.5,2.0
# From NK 744
P/2000 R2 (LINEAR),e,11.6871,160.2856,176.5588,3.467053,0.1526734,0.53159825,136.2395,11/26.0/2021,2000,g 18.0,4.0
# From MPC 43019
P/2001 H5 (NEAT),e,8.3670,328.6838,224.8191,6.097260,0.0654639,0.59827777,146.1155,11/26.0/2021,2000,g 12.0,4.0
# From MPC 75704
P/2001 Q6 (NEAT),e,56.9108,22.1719,42.9291,7.955120,0.0439272,0.82310323,323.7766,11/26.0/2021,2000,g 13.5,4.0
# From MPC 47727
P/2002 EJ57 (LINEAR),e,4.9763,330.3237,167.3348,6.468023,0.0599165,0.59230856,75.3336,11/26.0/2021,2000,g 12.5,4.0
# From MPEC 2021-W31
C/2002 O4 (Hoenig),h,09/30.2042/2002,73.1862,322.0545,105.4087,1.000256,0.762452,2000,9.5,4.0
# From MPC109588
P/2002 T6 (NEAT-LINEAR),e,10.8414,206.1818,219.6612,7.696776,0.0461573,0.56119521,315.2994,11/26.0/2021,2000,g 10.5,4.0
# From MPC 75007
C/2002 VQ94 (LINEAR),e,70.6409,35.0874,100.0806,184.6429,0.0003928,0.96304260,2.2711,11/26.0/2021,2000,g  9.5,2.0
# From MPC 50354
P/2003 F2 (NEAT),e,11.6076,359.0147,192.1907,6.502066,0.0594466,0.54202216,44.2475,11/26.0/2021,2000,g 16.5,2.0
# From MPC 50139
P/2003 QX29 (NEAT),e,11.3908,264.5501,37.5583,8.023441,0.0433674,0.47290642,301.5080,11/26.0/2021,2000,g  8.5,4.0
# From MPC105235
P/2003 T12 (SOHO),e,11.0212,174.5812,219.7481,2.585811,0.2370330,0.76989032,134.6412,11/26.0/2021,2000,g 17.0,4.0
# From MPC 82312
P/2004 A1 (LONEOS),e,10.5517,124.8515,21.2134,7.964649,0.0438484,0.30943962,277.5100,11/26.0/2021,2000,g  6.5,4.0
# From MPC 54558
P/2004 DO29 (Spacewatch-LINEAR),e,14.5324,147.3721,40.6175,7.288508,0.0500894,0.44109962,313.8487,11/26.0/2021,2000,g 13.5,2.0
# From MPC 54823
P/2004 FY140 (LINEAR),e,2.1348,326.7662,242.3143,4.904600,0.0907400,0.16802230,210.5053,11/26.0/2021,2000,g 12.5,2.0
# From MPC 53304
P/2004 R3 (LINEAR-NEAT),e,12.7891,305.4117,37.8860,4.780290,0.0943024,0.25795360,6.0873,11/26.0/2021,2000,g 14.5,4.0
# From MPC 55521
P/2004 V3 (Siding Spring),e,50.4431,356.1281,322.4005,7.137069,0.0516921,0.44624248,322.4461,11/26.0/2021,2000,g 11.5,4.0
# From MPC 75705
P/2004 V5 (LINEAR-Hill),e,19.3402,47.7902,87.6481,7.982712,0.0436997,0.44383589,268.6610,11/26.0/2021,2000,g  8.0,4.0
# From MPC 54164
P/2005 E1 (Tubbiolo),e,4.2637,335.5685,193.9957,7.043572,0.0527248,0.37520414,324.5607,11/26.0/2021,2000,g 10.0,4.0
# From MPC 54823
P/2005 GF8 (LONEOS),e,1.1865,314.6324,284.5870,5.813518,0.0703146,0.51710329,55.6066,11/26.0/2021,2000,g 11.5,4.0
# From MPC 79019
P/2005 J1 (McNaught),e,31.7540,268.8192,338.9576,3.570957,0.1460586,0.56938228,166.6201,11/26.0/2021,2000,g 16.5,4.0
# From MPC 74246
P/2005 L1 (McNaught),e,7.7385,138.2482,149.7467,3.977585,0.1242438,0.20992121,2.8781,11/26.0/2021,2000,g  9.5,4.0
# From MPC 75706
P/2005 S2 (Skiff),e,3.1357,161.2176,229.2218,8.011828,0.0434617,0.19786388,246.6678,11/26.0/2021,2000,g  7.5,4.0
# From MPC 75706
P/2005 SB216 (LONEOS),e,24.0969,1.1598,83.3226,7.136308,0.0517004,0.46402049,281.7652,11/26.0/2021,2000,g 12.0,2.0
# From MPEC 2021-W47
P/2005 T2 (Christensen),e,8.2892,260.1569,58.9209,3.846384,0.1306547,0.41586104,78.3433,11/26.0/2021,2000,g 14.5,4.0
# From MPC 73461
P/2005 T3 (Read),e,6.2236,27.7016,6.7315,7.585121,0.0471803,0.17479086,278.6321,11/26.0/2021,2000,g  9.0,4.0
# From MPC 73461
P/2005 T4 (SWAN),e,160.2359,25.8221,41.7293,9.361010,0.0344128,0.92970755,202.9807,11/26.0/2021,2000,g 15.0,4.0
# From MPC 75706
P/2005 T5 (Broughton),e,21.3679,56.9998,304.6096,7.286797,0.0501071,0.55251333,295.0540,11/26.0/2021,2000,g 11.0,4.0
# From MPC 75706
P/2005 Y2 (McNaught),e,19.0464,94.3113,193.8182,6.364236,0.0613882,0.46946723,24.7610,11/26.0/2021,2000,g  9.0,4.0
# From MPC 56954
P/2006 F4 (Spacewatch),e,12.4379,183.8231,30.8037,3.518105,0.1493623,0.34092431,126.4362,11/26.0/2021,2000,g 15.0,4.0
# From MPC 75707
P/2006 HR30 (Siding Spring),e,31.8366,309.8862,117.3091,7.810680,0.0451514,0.84258798,246.6435,11/26.0/2021,2000,g 11.0,4.0
# From MPC 75707
P/2007 A2 (Christensen),e,26.4875,300.9097,186.7140,6.331404,0.0618663,0.55797462,337.2255,11/26.0/2021,2000,g 13.5,4.0
# From MPC 75707
P/2007 C2 (Catalina),e,8.6226,275.4298,180.1057,6.993439,0.0532927,0.47138453,275.8035,11/26.0/2021,2000,g 10.0,4.0
# From MPC 84315
C/2007 D1 (LINEAR),e,41.5017,171.2275,339.9363,1312,0.0000207,0.99328400,0.0000,06/07.5984/2007,2000,g  3.5,4.0
# From MPC 82314
P/2007 K2 (Gibbs),e,7.6294,188.6382,347.4080,7.268839,0.0502929,0.68296142,266.3932,11/26.0/2021,2000,g 14.0,4.0
# From MPC 60925
P/2007 Q2 (Gilmore),e,10.2026,172.1566,162.8007,5.654136,0.0733086,0.67012750,26.6850,11/26.0/2021,2000,g 16.0,4.0
# From MPC 73462
P/2007 S1 (Zhao),e,5.9641,141.3701,245.4357,3.820472,0.1319862,0.33970989,318.3394,11/26.0/2021,2000,g 13.0,4.0
# From MPC 61994
P/2007 T2 (Kowalski),e,9.7512,3.3761,359.6457,3.046533,0.1853511,0.78554908,226.2579,11/26.0/2021,2000,g 18.5,4.0
# From MPC 75709
P/2008 L2 (Hill),e,25.8663,218.0134,141.2419,6.027674,0.0666008,0.61331806,324.6308,11/26.0/2021,2000,g 12.5,4.0
# From MPC 64114
P/2008 O3 (Boattini),e,32.2958,47.5763,341.1219,8.219096,0.0418281,0.69586000,206.2581,11/26.0/2021,2000,g 13.0,4.0
# From MPC 66204
P/2008 WZ96 (LINEAR),e,7.1117,56.4457,341.9426,3.487014,0.1513643,0.46981987,13.8034,11/26.0/2021,2000,g 13.5,4.0
# From MPC 75710
P/2008 Y3 (McNaught),e,38.7714,262.8205,238.1429,8.047573,0.0431724,0.44548569,203.9851,11/26.0/2021,2000,g  8.5,4.0
# From MPC 75710
P/2009 B1 (Boattini),e,22.2242,297.0850,128.8769,6.737453,0.0563586,0.63512645,265.3931,11/26.0/2021,2000,g 13.0,4.0
# From MPC 66466
C/2009 G1 (STEREO),e,108.6763,120.4713,175.4583,449.1776,0.0001035,0.99746551,0.0000,04/16.7979/2009,2000,g  9.0,4.0
# From MPC 75710
P/2009 O3 (Hill),e,16.2820,183.6923,154.4505,7.768088,0.0455232,0.68787504,207.9358,11/26.0/2021,2000,g 12.5,4.0
# From MPC 68902
P/2009 Q5 (McNaught),e,40.9888,160.2803,209.0494,7.433693,0.0486292,0.60941856,216.9746,11/26.0/2021,2000,g 10.0,4.0
# From MPC112389
P/2009 T2 (La Sagra),e,27.5815,215.8524,216.3542,7.721750,0.0459336,0.76574072,199.8700,11/26.0/2021,2000,g 14.0,4.0
# From MPC105235
P/2009 WX51 (Catalina),e,9.5935,31.6356,118.1669,3.082055,0.1821560,0.74004815,68.2550,11/26.0/2021,2000,g 19.0,2.0
# From MPC 74247
P/2009 Y2 (Kowalski),e,29.9430,262.0299,172.1342,6.550238,0.0587920,0.63628315,252.2107,11/26.0/2021,2000,g 13.0,4.0
# From MPC 75711
P/2010 A3 (Hill),e,14.8260,63.7659,42.1977,6.081082,0.0657253,0.73357554,280.9745,11/26.0/2021,2000,g 14.0,4.0
# From MPC 75008
P/2010 C1 (Scotti),e,9.1282,141.8863,3.5700,7.103988,0.0520536,0.25919083,229.0693,11/26.0/2021,2000,g  9.5,4.0
# From MPC 75008
P/2010 D2 (WISE),e,57.0881,319.8892,119.9957,6.718413,0.0565984,0.45116235,243.7850,11/26.0/2021,2000,g 16.0,4.0
# From MPC 75009
P/2010 E2 (Jarnac),e,15.3891,177.8216,8.3449,8.639841,0.0388102,0.71962311,165.3221,11/26.0/2021,2000,g 14.0,4.0
# From MPC 72851
P/2010 H2 (Vales),e,14.2755,64.1925,128.0597,3.833102,0.1313344,0.19606240,202.2329,11/26.0/2021,2000,g  6.0,4.0
# From MPC 70361
P/2010 H3 (SOHO),e,23.0651,77.0854,26.1602,3.037108,0.1862146,0.98535688,0.0000,02/07.9424/2021,2000,g 20.0,2.0
# From MPC 73463
P/2010 H4 (Scotti),e,2.3181,44.7331,179.4752,6.594695,0.0581985,0.26670078,243.4148,11/26.0/2021,2000,g 10.5,4.0
# From MPC 74637
P/2010 H5 (Scotti),e,14.0600,24.8000,175.0435,7.165539,0.0513843,0.15281259,218.8677,11/26.0/2021,2000,g 13.0,2.0
# From MPC 98558
P/2010 J3 (McMillan),e,13.2799,106.4334,157.5998,8.975742,0.0366521,0.72643539,150.5445,11/26.0/2021,2000,g 11.0,4.0
# From MPC 84315
P/2010 JC81 (WISE),e,38.7824,30.8565,12.4239,8.108083,0.0426901,0.77736813,165.2776,11/26.0/2021,2000,g  9.0,4.0
# From MPC 74248
P/2010 T2 (PANSTARRS),e,7.8898,58.7547,353.1253,5.542478,0.0755350,0.32190347,296.1462,11/26.0/2021,2000,g 11.5,4.0
# From MPC 98558
P/2010 TO20 (LINEAR-Grauer),e,2.4788,43.2907,267.0388,5.831686,0.0699863,0.05531692,334.6881,11/26.0/2021,2000,g  9.0,4.0
# From MPC 82316
P/2010 U1 (Boattini),e,8.2165,280.6978,86.0583,6.506847,0.0593811,0.24877364,256.4448,11/26.0/2021,2000,g  9.5,4.0
# From MPEC 2021-R75
C/2010 U3 (Boattini),e,55.5377,43.0094,88.0435,2394,0.0000084,0.99647316,0.0000,02/25.2317/2019,2000,g  1.0,4.0
# From MPC 79021
P/2010 UH55 (Spacewatch),e,8.0398,232.9279,225.1580,6.653799,0.0574248,0.56341124,223.1125,11/26.0/2021,2000,g 11.0,4.0
# From MPC 75009
P/2010 WK (LINEAR),e,11.4015,11.3312,40.9656,5.761974,0.0712602,0.69017908,290.9689,11/26.0/2021,2000,g 14.5,2.0
# From MPC 84021
P/2011 C2 (Gibbs),e,10.8854,12.1234,160.7759,7.413356,0.0488294,0.26889728,176.9035,11/26.0/2021,2000,g  9.0,4.0
# From MPC 79866
P/2011 FR143 (Lemmon),e,15.9777,190.9502,350.0400,6.860629,0.0548477,0.45051463,215.4067,11/26.0/2021,2000,g 14.0,2.0
# From MPC 82317
P/2011 JB15 (Spacewatch-Boattini),e,19.1477,153.5798,111.0730,7.360327,0.0493581,0.31702155,177.5083,11/26.0/2021,2000,g  9.0,4.0
# From MPC 87913
P/2011 N1 (ASH),e,35.7391,77.5871,330.3466,6.247479,0.0631171,0.54442295,219.4590,11/26.0/2021,2000,g 11.5,4.0
# From MPC 75714
P/2011 NO1 (Elenin),e,15.2468,295.8126,263.7574,5.527018,0.0758521,0.77455122,300.7493,11/26.0/2021,2000,g 15.0,4.0
# From MPC 82318
